{"type": "FeatureCollection", "features": [ {"type": "Feature", "properties": {"norad_id": 47005, "name": "FENGYUN 1C DEB", "group": "fengyun-1c-debris", "lat": -71.05849395224158, "lon": 94.03930686860026, "alt_km": 819.5964041374882, "timestamp": "2025-12-02T06:27:53.304046+00:00", "meta": {"OBJECT_NAME": "FENGYUN 1C DEB", "OBJECT_ID": "1999-025FAF", "EPOCH": "2025-11-30T12:21:06.215328", "MEAN_MOTION": 14.10883027, "ECCENTRICITY": 0.00630575, "INCLINATION": 99.6025, "RA_OF_ASC_NODE": 62.6085, "ARG_OF_PERICENTER": 275.5459, "MEAN_ANOMALY": 102.9944, "EPHEMERIS_TYPE": 0, "CLASSIFICATION_TYPE": "U", "NORAD_CAT_ID": 47005, "ELEMENT_SET_NO": 999, "REV_AT_EPOCH": 82595, "BSTAR": 0.0024596036, "MEAN_MOTION_DOT": 4.445e-05, "MEAN_MOTION_DDOT": 0}, "tle": {"line1": "1 47005U 99025FAF 25334.51465527  .00004445  00000+0  24596-2 0  9997", "line2": "2 47005  99.6025  62.6085 0063057 275.5459 102.9944 14.10883027825956"}}, "geometry": {"type": "Point", "coordinates": [94.03930686860026, -71.05849395224158]}}, {"type": "Feature", "properties": {"norad_id": 47007, "name": "FENGYUN 1C DEB", "group": "fengyun-1c-debris", "lat": -40.1202825771216, "lon": 12.368041175318808, "alt_km": 1034.6395435176, "timestamp": "2025-12-02T06:27:53.304056+00:00", "meta": {"OBJECT_NAME": "FENGYUN 1C DEB", "OBJECT_ID": "1999-025FAH", "EPOCH": "2025-11-28T20:38:56.637600", "MEAN_MOTION": 13.9706531, "ECCENTRICITY": 0.02352924, "INCLINATION": 98.2083, "RA_OF_ASC_NODE": 196.306, "ARG_OF_PERICENTER": 92.697, "MEAN_ANOMALY": 270.115, "EPHEMERIS_TYPE": 0, "CLASSIFICATION_TYPE": "U", "NORAD_CAT_ID": 47007, "ELEMENT_SET_NO": 999, "REV_AT_EPOCH": 78655, "BSTAR": 0.0024244084, "MEAN_MOTION_DOT": 4.245e-05, "MEAN_MOTION_DDOT": 0}, "tle": {"line1": "1 47007U 99025FAH 25332.86037775  .00004245  00000+0  24244-2 0  9993", "line2": "2 47007  98.2083 196.3060 0235292  92.6970 270.1150 13.97065310786553"}}, "geometry": {"type": "Point", "coordinates": [12.368041175318808, -40.1202825771216]}}, {"type": "Feature", "properties": {"norad_id": 47009, "name": "FENGYUN 1C DEB", "group": "fengyun-1c-debris", "lat": -73.64706155215521, "lon": 108.90989355562061, "alt_km": 894.2510079606773, "timestamp": "2025-12-02T06:27:53.304066+00:00", "meta": {"OBJECT_NAME": "FENGYUN 1C DEB", "OBJECT_ID": "1999-025FAK", "EPOCH": "2025-11-25T06:10:16.767264", "MEAN_MOTION": 13.37298621, "ECCENTRICITY": 0.03524822, "INCLINATION": 98.9385, "RA_OF_ASC_NODE": 315.1741, "ARG_OF_PERICENTER": 303.1351, "MEAN_ANOMALY": 53.6413, "EPHEMERIS_TYPE": 0, "CLASSIFICATION_TYPE": "U", "NORAD_CAT_ID": 47009, "ELEMENT_SET_NO": 999, "REV_AT_EPOCH": 58575, "BSTAR": 0.000562185, "MEAN_MOTION_DOT": 3.8e-06, "MEAN_MOTION_DDOT": 0}, "tle": {"line1": "1 47009U 99025FAK 25329.25713851  .00000380  00000+0  56218-3 0  9993", "line2": "2 47009  98.9385 315.1741 0352482 303.1351  53.6413 13.37298621585750"}}, "geometry": {"type": "Point", "coordinates": [108.90989355562061, -73.64706155215521]}}, {"type": "Feature", "properties": {"norad_id": 47012, "name": "FENGYUN 1C DEB", "group": "fengyun-1c-debris", "lat": -23.099646193645018, "lon": 31.78525134007155, "alt_km": 1019.9738075988162, "timestamp": "2025-12-02T06:27:53.304076+00:00", "meta": {"OBJECT_NAME": "FENGYUN 1C DEB", "OBJECT_ID": "1999-025FAN", "EPOCH": "2025-11-21T11:34:23.982528", "MEAN_MOTION": 13.77887873, "ECCENTRICITY": 0.01636388, "INCLINATION": 98.7555, "RA_OF_ASC_NODE": 205.6016, "ARG_OF_PERICENTER": 120.2349, "MEAN_ANOMALY": 241.5118, "EPHEMERIS_TYPE": 0, "CLASSIFICATION_TYPE": "U", "NORAD_CAT_ID": 47012, "ELEMENT_SET_NO": 999, "REV_AT_EPOCH": 54280, "BSTAR": 0.00045664705, "MEAN_MOTION_DOT": 4.67e-06, "MEAN_MOTION_DDOT": 0}, "tle": {"line1": "1 47012U 99025FAN 25325.48222202  .00000467  00000+0  45665-3 0  9993", "line2": "2 47012  98.7555 205.6016 0163638 120.2349 241.5118 13.77887873542803"}}, "geometry": {"type": "Point", "coordinates": [31.78525134007155, -23.099646193645018]}}, {"type": "Feature", "properties": {"norad_id": 47013, "name": "FENGYUN 1C DEB", "group": "fengyun-1c-debris", "lat": 11.457451939222418, "lon": 45.24490819898733, "alt_km": 850.3697708122245, "timestamp": "2025-12-02T06:27:53.304085+00:00", "meta": {"OBJECT_NAME": "FENGYUN 1C DEB", "OBJECT_ID": "1999-025FAP", "EPOCH": "2025-11-16T11:10:59.954016", "MEAN_MOTION": 14.24672933, "ECCENTRICITY": 0.00559466, "INCLINATION": 98.0819, "RA_OF_ASC_NODE": 32.3431, "ARG_OF_PERICENTER": 238.0397, "MEAN_ANOMALY": 121.5338, "EPHEMERIS_TYPE": 0, "CLASSIFICATION_TYPE": "U", "NORAD_CAT_ID": 47013, "ELEMENT_SET_NO": 999, "REV_AT_EPOCH": 72885, "BSTAR": 0.0028202138, "MEAN_MOTION_DOT": 6.632e-05, "MEAN_MOTION_DDOT": 0}, "tle": {"line1": "1 47013U 99025FAP 25320.46597169  .00006632  00000+0  28202-2 0  9991", "line2": "2 47013  98.0819  32.3431 0055946 238.0397 121.5338 14.24672933728853"}}, "geometry": {"type": "Point", "coordinates": [45.24490819898733, 11.457451939222418]}}, {"type": "Feature", "properties": {"norad_id": 47015, "name": "FENGYUN 1C DEB", "group": "fengyun-1c-debris", "lat": 15.995735191775166, "lon": 29.446113667549007, "alt_km": 685.2492541198526, "timestamp": "2025-12-02T06:27:53.304095+00:00", "meta": {"OBJECT_NAME": "FENGYUN 1C DEB", "OBJECT_ID": "1999-025FAR", "EPOCH": "2025-11-27T21:25:01.629408", "MEAN_MOTION": 14.86966411, "ECCENTRICITY": 0.0176465, "INCLINATION": 98.7125, "RA_OF_ASC_NODE": 27.1652, "ARG_OF_PERICENTER": 160.0571, "MEAN_ANOMALY": 200.7655, "EPHEMERIS_TYPE": 0, "CLASSIFICATION_TYPE": "U", "NORAD_CAT_ID": 47015, "ELEMENT_SET_NO": 999, "REV_AT_EPOCH": 64161, "BSTAR": 0.00089165, "MEAN_MOTION_DOT": 0.00010559, "MEAN_MOTION_DDOT": 0}, "tle": {"line1": "1 47015U 99025FAR 25331.89237997  .00010559  00000+0  89165-3 0  9991", "line2": "2 47015  98.7125  27.1652 0176465 160.0571 200.7655 14.86966411641612"}}, "geometry": {"type": "Point", "coordinates": [29.446113667549007, 15.995735191775166]}}, {"type": "Feature", "properties": {"norad_id": 47025, "name": "FENGYUN 1C DEB", "group": "fengyun-1c-debris", "lat": 70.16559160791532, "lon": 28.294458271998067, "alt_km": 726.7070299531915, "timestamp": "2025-12-02T06:27:53.304125+00:00", "meta": {"OBJECT_NAME": "FENGYUN 1C DEB", "OBJECT_ID": "1999-025FBB", "EPOCH": "2025-11-30T12:35:56.660640", "MEAN_MOTION": 14.46010866, "ECCENTRICITY": 0.00405511, "INCLINATION": 99.0342, "RA_OF_ASC_NODE": 180.2642, "ARG_OF_PERICENTER": 32.8016, "MEAN_ANOMALY": 358.7994, "EPHEMERIS_TYPE": 0, "CLASSIFICATION_TYPE": "U", "NORAD_CAT_ID": 47025, "ELEMENT_SET_NO": 999, "REV_AT_EPOCH": 62565, "BSTAR": 0.0021063244, "MEAN_MOTION_DOT": 7.539e-05, "MEAN_MOTION_DDOT": 0}, "tle": {"line1": "1 47025U 99025FBB 25334.52496135  .00007539  00000+0  21063-2 0  9992", "line2": "2 47025  99.0342 180.2642 0040551  32.8016 358.7994 14.46010866625650"}}, "geometry": {"type": "Point", "coordinates": [28.294458271998067, 70.16559160791532]}}, {"type": "Feature", "properties": {"norad_id": 47036, "name": "FENGYUN 1C DEB", "group": "fengyun-1c-debris", "lat": -3.7874897103264145, "lon": 20.49696395961672, "alt_km": 877.2582504840784, "timestamp": "2025-12-02T06:27:53.304135+00:00", "meta": {"OBJECT_NAME": "FENGYUN 1C DEB", "OBJECT_ID": "1999-025FBN", "EPOCH": "2025-11-28T09:15:13.426848", "MEAN_MOTION": 14.15163144, "ECCENTRICITY": 0.00686805, "INCLINATION": 98.724, "RA_OF_ASC_NODE": 16.1165, "ARG_OF_PERICENTER": 138.0391, "MEAN_ANOMALY": 243.5901, "EPHEMERIS_TYPE": 0, "CLASSIFICATION_TYPE": "U", "NORAD_CAT_ID": 47036, "ELEMENT_SET_NO": 999, "REV_AT_EPOCH": 59724, "BSTAR": 0.00016733968, "MEAN_MOTION_DOT": 2.9e-06, "MEAN_MOTION_DDOT": 0}, "tle": {"line1": "1 47036U 99025FBN 25332.38557207  .00000290  00000+0  16734-3 0  9991", "line2": "2 47036  98.7240  16.1165 0068680 138.0391 243.5901 14.15163144597246"}}, "geometry": {"type": "Point", "coordinates": [20.49696395961672, -3.7874897103264145]}}, {"type": "Feature", "properties": {"norad_id": 47040, "name": "FENGYUN 1C DEB", "group": "fengyun-1c-debris", "lat": 68.77544377474908, "lon": 89.51029299136543, "alt_km": 905.2501300752874, "timestamp": "2025-12-02T06:27:53.304145+00:00", "meta": {"OBJECT_NAME": "FENGYUN 1C DEB", "OBJECT_ID": "1999-025FBS", "EPOCH": "2025-12-01T11:09:52.930944", "MEAN_MOTION": 14.06455951, "ECCENTRICITY": 0.00631173, "INCLINATION": 100.2942, "RA_OF_ASC_NODE": 240.695, "ARG_OF_PERICENTER": 263.1866, "MEAN_ANOMALY": 96.2113, "EPHEMERIS_TYPE": 0, "CLASSIFICATION_TYPE": "U", "NORAD_CAT_ID": 47040, "ELEMENT_SET_NO": 999, "REV_AT_EPOCH": 88950, "BSTAR": 0.00069483583, "MEAN_MOTION_DOT": 1.114e-05, "MEAN_MOTION_DDOT": 0}, "tle": {"line1": "1 47040U 99025FBS 25335.46519596  .00001114  00000+0  69484-3 0  9993", "line2": "2 47040 100.2942 240.6950 0063117 263.1866  96.2113 14.06455951889503"}}, "geometry": {"type": "Point", "coordinates": [89.51029299136543, 68.77544377474908]}}, {"type": "Feature", "properties": {"norad_id": 47041, "name": "FENGYUN 1C DEB", "group": "fengyun-1c-debris", "lat": -37.55903258458125, "lon": 175.62853384890272, "alt_km": 544.28695290204, "timestamp": "2025-12-02T06:27:53.304155+00:00", "meta": {"OBJECT_NAME": "FENGYUN 1C DEB", "OBJECT_ID": "1999-025FBT", "EPOCH": "2025-12-01T20:42:35.125920", "MEAN_MOTION": 15.06141345, "ECCENTRICITY": 0.0014602, "INCLINATION": 98.2567, "RA_OF_ASC_NODE": 1.6046, "ARG_OF_PERICENTER": 224.2685, "MEAN_ANOMALY": 311.1371, "EPHEMERIS_TYPE": 0, "CLASSIFICATION_TYPE": "U", "NORAD_CAT_ID": 47041, "ELEMENT_SET_NO": 999, "REV_AT_EPOCH": 71025, "BSTAR": 0.0019304, "MEAN_MOTION_DOT": 0.00028334, "MEAN_MOTION_DDOT": 0}, "tle": {"line1": "1 47041U 99025FBT 25335.86290655  .00028334  00000+0  19304-2 0  9998", "line2": "2 47041  98.2567   1.6046 0014602 224.2685 311.1371 15.06141345710256"}}, "geometry": {"type": "Point", "coordinates": [175.62853384890272, -37.55903258458125]}}]}